[{"OBJECT_NAME":"STARLINK-34540","OBJECT_ID":"2025-211F","EPOCH":"2026-03-09T17:04:06.544704","MEAN_MOTION":15.05647668,"ECCENTRICITY":0.00019532,"INCLINATION":97.6023,"RA_OF_ASC_NODE":114.0635,"ARG_OF_PERICENTER":112.0865,"MEAN_ANOMALY":248.0569,"EPHEMERIS_TYPE":0,"CLASSIFICATION_TYPE":"U","NORAD_CAT_ID":65657,"ELEMENT_SET_NO":999,"REV_AT_EPOCH":2704,"BSTAR":7.5632757e-5,"MEAN_MOTION_DOT":1.031e-5,"MEAN_MOTION_DDOT":0},{"OBJECT_NAME":"CZ-2C DEB","OBJECT_ID":"2014-059D","EPOCH":"2026-03-09T22:58:58.836288","MEAN_MOTION":14.93158478,"ECCENTRICITY":0.00543695,"INCLINATION":97.8294,"RA_OF_ASC_NODE":330.422,"ARG_OF_PERICENTER":95.2459,"MEAN_ANOMALY":265.4968,"EPHEMERIS_TYPE":0,"CLASSIFICATION_TYPE":"U","NORAD_CAT_ID":40264,"ELEMENT_SET_NO":999,"REV_AT_EPOCH":60833,"BSTAR":0.0017870547,"MEAN_MOTION_DOT":0.00019177,"MEAN_MOTION_DDOT":0}]
